NAVSTAR 48 (USA 151)    
1 26407U 00040A   26177.27244779  .00000080  00000+0  00000+0 0  9994
2 26407  54.8504 214.8013 0120911 302.5469  61.1141  2.00557847190135
NAVSTAR 51 (USA 166)    
1 27663U 03005A   26177.15567986  .00000080  00000+0  00000+0 0  9998
2 27663  54.8811 214.6123 0148006  53.0952   2.3339  2.00560186171495
NAVSTAR 54 (USA 177)    
1 28190U 04009A   26177.37504252 -.00000053  00000+0  00000+0 0  9991
2 28190  54.8219 275.3158 0116472 173.4943 193.2611  2.00554561163139
NAVSTAR 56 (USA 180)    
1 28474U 04045A   26177.69139836 -.00000105  00000+0  00000+0 0  9991
2 28474  55.1302 324.5134 0169919 316.6359 343.5014  2.00556468158610
NAVSTAR 57 (USA 183)    
1 28874U 05038A   26177.82146705 -.00000043  00000+0  00000+0 0  9997
2 28874  54.8700 272.7885 0127991 296.2425  61.8586  2.00565150152021
INMARSAT 4-F2           
1 28899U 05044A   26177.97915821 -.00000254  00000+0  00000+0 0  9994
2 28899   5.1075  43.6835 0003299  41.8800 325.5197  1.00271872 75629
NAVSTAR 58 (USA 190)    
1 29486U 06042A   26177.46628734  .00000043  00000+0  00000+0 0  9999
2 29486  54.7118 150.9706 0106773  54.6587 305.6063  2.00569377144577
NAVSTAR 59 (USA 192)    
1 29601U 06052A   26177.39306010  .00000082  00000+0  00000+0 0  9994
2 29601  54.9344 213.6411 0084629  90.8415 270.2080  2.00558596143594
NAVSTAR 60 (USA 196)    
1 32260U 07047A   26177.19961717 -.00000076  00000+0  00000+0 0  9997
2 32260  54.1016  79.6941 0167103  87.5760 274.3492  2.00554914136998
COSMOS 2433 [GLONASS-M] 
1 32275U 07052A   26177.30077292 -.00000084  00000+0  00000+0 0  9997
2 32275  65.5713 315.6262 0002876 196.1254 163.8539  2.13104185145251
COSMOS 2432 [GLONASS-M] 
1 32276U 07052B   26176.85436133 -.00000085  00000+0  00000+0 0  9991
2 32276  65.5875 315.7691 0007440 328.8615 352.4942  2.13103155145266
NAVSTAR 61 (USA 199)    
1 32384U 07062A   26177.47739374 -.00000048  00000+0  00000+0 0  9993
2 32384  55.0241 273.7790 0035844 166.2387 161.8348  2.00560747135697
COSMOS 2434 [GLONASS-M] 
1 32393U 07065A   26177.48543221  .00000105  00000+0  00000+0 0  9994
2 32393  64.3185 191.6023 0001250 327.1544  64.2860  2.13101371143974
COSMOS 2436 [GLONASS-M] 
1 32395U 07065C   26177.50729759  .00000105  00000+0  00000+0 0  9991
2 32395  64.3272 191.6738 0017278 353.6044 186.8858  2.13100188143920
NAVSTAR 62 (USA 201)    
1 32711U 08012A   26177.11012545  .00000044  00000+0  00000+0 0  9993
2 32711  54.4985 149.5683 0211415 247.9482 109.7699  2.00572724133936
NAVSTAR 64 (USA 206)    
1 35752U 09043A   26177.34349432 -.00000085  00000+0  00000+0 0  9995
2 35752  56.2161  27.0922 0053802  83.5927  94.0235  2.00553956123542
COSMOS 2456 [GLONASS-M] 
1 36111U 09070A   26176.78374925 -.00000065  00000+0  00000+0 0  9995
2 36111  65.0164  70.6784 0004249 334.9853  36.3390  2.13103651128616
COSMOS 2457 [GLONASS-M] 
1 36112U 09070B   26174.95633448 -.00000070  00000+0  00000+0 0  9997
2 36112  65.0012  70.5847 0003066 122.1178  54.6156  2.13101046128575
COSMOS 2460 [GLONASS-M] 
1 36402U 10007C   26177.27951547 -.00000085  00000+0  00000+0 0  9998
2 36402  65.4147 314.1582 0002021 121.6586  39.2894  2.13101756126923
NAVSTAR 65 (USA 213)    
1 36585U 10022A   26177.37049338  .00000086  00000+0  00000+0 0  9994
2 36585  54.2697 208.1920 0126418  66.1257 250.0099  2.00562964117775
BEIDOU-2 IGSO-1         
1 36828U 10036A   26177.90040617 -.00000057  00000+0  00000+0 0  9998
2 36828  54.3050 162.8716 0059014 225.3100 318.5305  1.00269877 58197
BEIDOU-2 G4             
1 37210U 10057A   26177.62604779 -.00000105  00000+0  00000+0 0  9995
2 37210   3.6706  68.8985 0004795 192.9286  38.2799  1.00271498 57386
BEIDOU-2 IGSO-2         
1 37256U 10068A   26175.67652892 -.00000223  00000+0  00000+0 0  9990
2 37256  47.5326 271.7373 0056042 213.3814 139.3528  1.00281062 56867
BEIDOU-2 IGSO-3         
1 37384U 11013A   26176.54644699 -.00000187  00000+0  00000+0 0  9995
2 37384  62.4191  40.0714 0035057 184.1159 353.6243  1.00266124 55744
GSAT-8                  
1 37605U 11022A   26177.96173812  .00000094  00000+0  00000+0 0  9998
2 37605   2.1561  81.7152 0001642 185.0101  49.6504  1.00273124 53311
BEIDOU-2 IGSO-4         
1 37763U 11038A   26176.93636431  .00000029  00000+0  00000+0 0  9995
2 37763  54.6029 165.5946 0159584 231.4886 307.8251  1.00284248 54738
GSAT0101 (GALILEO-PFM)  
1 37846U 11060A   26177.23375949 -.00000096  00000+0  00000+0 0  9995
2 37846  56.9911 341.5158 0002838  55.8370 304.1849  1.70475865 91278
GSAT0102 (GALILEO-FM2)  
1 37847U 11060B   26176.58449965 -.00000097  00000+0  00000+0 0  9994
2 37847  56.9921 341.5338 0002831  14.5912 352.5946  1.70476098 91271
COSMOS 2476 [GLONASS-M] 
1 37867U 11064A   26173.36699142 -.00000061  00000+0  00000+0 0  9998
2 37867  65.2731  72.6963 0022606 238.5611 299.8582  2.13103651113877
COSMOS 2477 [GLONASS-M] 
1 37868U 11064B   26177.36350277 -.00000060  00000+0  00000+0 0  9995
2 37868  65.2816  72.6408 0019406 238.9829 305.7504  2.13102971113959
COSMOS 2475 [GLONASS-M] 
1 37869U 11064C   26177.48446434 -.00000059  00000+0  00000+0 0  9998
2 37869  65.2887  72.6583 0025334 252.6778 339.9393  2.13101901113963
